NORAD_CAT_ID,OBJECT_NAME,OBJECT_TYPE,EPOCH,MEAN_MOTION,ECCENTRICITY,INCLINATION,RA_OF_ASC_NODE,ARG_OF_PERICENTER,MEAN_ANOMALY,BSTAR,MEAN_MOTION_DOT,MEAN_MOTION_DDOT,TLE_LINE0,TLE_LINE1,TLE_LINE2,SEMIMAJOR_AXIS,PERIOD,APOGEE,PERIGEE,DECAYED
54096.0,STARLINK-5188,PAYLOAD,2023-02-15 01:42:31,15.08828534,0.0001503,53.2178,315.589,73.0183,287.0974,0.00047876,7.337e-05,0.0,0 STARLINK-5188,1 54096U 22136AX  23046.07119882  .00007337  00000-0  47876-3 0  9994,2 54096  53.2178 315.5890 0001503  73.0183 287.0974 15.08828534 18587,6917.915,95.438,540.82,538.741,0.0
54096.0,STARLINK-5188,PAYLOAD,2023-02-15 22:22:32,15.08852694,0.0001812,53.2179,311.7234,77.8995,282.22,9.8448e-05,1.28e-05,0.0,0 STARLINK-5188,1 54096U 22136AX  23046.93231611  .00001280  00000-0  98448-4 0  9997,2 54096  53.2179 311.7234 0001812  77.8995 282.2200 15.08852694 18240,6917.842,95.437,540.96,538.453,0.0
54096.0,STARLINK-5188,PAYLOAD,2023-02-15 23:57:55,15.08858824,0.0001785,53.2178,311.4275,64.116,296.0016,-5.8948e-06,-3.82e-06,0.0,0 STARLINK-5188,1 54096U 22136AX  23046.99855486 -.00000382  00000-0 -58948-5 0  9991,2 54096  53.2178 311.4275 0001785  64.1160 296.0016 15.08858824 18725,6917.823,95.436,540.923,538.453,0.0
54096.0,STARLINK-5188,PAYLOAD,2023-02-16 11:05:36,15.08851572,0.0001827,53.2168,309.3445,67.306,292.8126,7.9443e-05,9.77e-06,0.0,0 STARLINK-5188,1 54096U 22136AX  23047.46223129  .00000977  00000-0  79443-4 0  9997,2 54096  53.2168 309.3445 0001827  67.3060 292.8126 15.08851572 18325,6917.845,95.437,540.974,538.446,0.0
54096.0,STARLINK-5188,PAYLOAD,2023-02-16 22:13:20,15.08828948,0.0001471,53.2174,307.2638,66.8712,293.2435,-0.00010284,-1.924e-05,0.0,0 STARLINK-5188,1 54096U 22136AX  23047.92593072 -.00001924  00000-0 -10284-3 0  9997,2 54096  53.2174 307.2638 0001471  66.8712 293.2435 15.08828948 18392,6917.914,95.438,540.797,538.762,0.0
54096.0,STARLINK-5188,PAYLOAD,2023-02-17 02:59:28,15.0885266,0.0001177,53.2178,306.3667,93.7713,266.3414,-3.471e-05,-8.4e-06,0.0,0 STARLINK-5188,1 54096U 22136AX  23048.12463129 -.00000840  00000-0 -34710-4 0  9996,2 54096  53.2178 306.3667 0001177  93.7713 266.3414 15.08852660 18892,6917.842,95.437,540.521,538.892,0.0
54096.0,STARLINK-5188,PAYLOAD,2023-02-17 17:17:58,15.08825585,0.0001232,53.2158,303.6951,64.9309,295.1811,-0.00014621,-2.613e-05,0.0,0 STARLINK-5188,1 54096U 22136AX  23048.72081601 -.00002613  00000-0 -14621-3 0  9991,2 54096  53.2158 303.6951 0001232  64.9309 295.1811 15.08825585 18986,6917.924,95.438,540.642,538.937,0.0
54096.0,STARLINK-5188,PAYLOAD,2023-02-17 20:28:44,15.08833236,0.0001235,53.2159,303.097,90.1173,269.9961,-0.00012676,-2.304e-05,0.0,0 STARLINK-5188,1 54096U 22136AX  23048.85329037 -.00002304  00000-0 -12676-3 0  9998,2 54096  53.2159 303.0970 0001235  90.1173 269.9961 15.08833236 18533,6917.901,95.438,540.62,538.912,0.0
54096.0,STARLINK-5188,PAYLOAD,2023-02-17 23:39:30,15.088385,0.0001276,53.2178,302.5018,90.5615,269.5523,-8.9371e-05,-1.71e-05,0.0,0 STARLINK-5188,1 54096U 22136AX  23048.98576730 -.00001710  00000-0 -89371-4 0  9993,2 54096  53.2178 302.5018 0001276  90.5615 269.5523 15.08838500 19025,6917.885,95.438,540.633,538.867,0.0
54096.0,STARLINK-5188,PAYLOAD,2023-02-18 09:11:48,15.08847056,0.0001162,53.2178,300.7175,114.4701,245.6413,-9.1827e-05,-1.749e-05,0.0,0 STARLINK-5188,1 54096U 22136AX  23049.38320065 -.00001749  00000-0 -91827-4 0  9997,2 54096  53.2178 300.7175 0001162 114.4701 245.6413 15.08847056 19080,6917.859,95.437,540.528,538.92,0.0
54096.0,STARLINK-5188,PAYLOAD,2023-02-18 23:30:17,15.08835997,9.99e-05,53.2172,298.0406,89.694,270.4166,0.00021075,3.068e-05,0.0,0 STARLINK-5188,1 54096U 22136AX  23049.97936410  .00003068  00000-0  21075-3 0  9990,2 54096  53.2172 298.0406 0000999  89.6940 270.4166 15.08835997 19177,6917.893,95.438,540.449,539.067,0.0
54096.0,STARLINK-5188,PAYLOAD,2023-02-19 09:02:35,15.08847248,9.23e-05,53.217,296.2584,84.9419,275.1678,9.2855e-05,1.191e-05,0.0,0 STARLINK-5188,1 54096U 22136AX  23050.37679943  .00001191  00000-0  92855-4 0  9991,2 54096  53.2170 296.2584 0000923  84.9419 275.1678 15.08847248 19237,6917.858,95.437,540.362,539.085,0.0
54096.0,STARLINK-5188,PAYLOAD,2023-02-19 23:21:03,15.08841619,0.0001102,53.2174,293.5848,116.4572,243.6534,0.00017284,2.464e-05,0.0,0 STARLINK-5188,1 54096U 22136AX  23050.97296258  .00002464  00000-0  17284-3 0  9997,2 54096  53.2174 293.5848 0001102 116.4572 243.6534 15.08841619 19322,6917.875,95.437,540.503,538.978,0.0
54096.0,STARLINK-5188,PAYLOAD,2023-02-20 08:53:22,15.08845765,8.06e-05,53.2154,291.7954,136.7608,223.3448,0.00016193,2.291e-05,0.0,0 STARLINK-5188,1 54096U 22136AX  23051.37039811  .00002291  00000-0  16193-3 0  9998,2 54096  53.2154 291.7954 0000806 136.7608 223.3448 15.08845765 18912,6917.863,95.437,540.285,539.17,0.0
54096.0,STARLINK-5188,PAYLOAD,2023-02-21 00:47:13,15.08849194,9.09e-05,53.2165,288.8248,97.79,262.3196,3.3863e-05,2.51e-06,0.0,0 STARLINK-5188,1 54096U 22136AX  23052.03279903  .00000251  00000-0  33863-4 0  9998,2 54096  53.2165 288.8248 0000909  97.7900 262.3196 15.08849194 19488,6917.852,95.437,540.346,539.088,0.0
54096.0,STARLINK-5188,PAYLOAD,2023-02-21 15:05:42,15.0884274,9.51e-05,53.2162,286.1476,105.8729,254.2368,5.2584e-05,5.49e-06,0.0,0 STARLINK-5188,1 54096U 22136AX  23052.62896003  .00000549  00000-0  52584-4 0  9990,2 54096  53.2162 286.1476 0000951 105.8729 254.2368 15.08842740 19106,6917.872,95.437,540.395,539.079,0.0
54096.0,STARLINK-5188,PAYLOAD,2023-02-21 21:27:14,15.0885094,9.67e-05,53.2165,284.9573,101.4526,258.6574,3.7596e-05,3.11e-06,0.0,0 STARLINK-5188,1 54096U 22136AX  23052.89391513  .00000311  00000-0  37596-4 0  9998,2 54096  53.2165 284.9573 0000967 101.4526 258.6574 15.08850940 19149,6917.847,95.437,540.381,539.043,0.0
54096.0,STARLINK-5188,PAYLOAD,2023-02-22 00:38:00,15.08855388,0.0001088,53.2162,284.3623,105.683,254.4282,6.8964e-05,8.1e-06,0.0,0 STARLINK-5188,1 54096U 22136AX  23053.02639045  .00000810  00000-0  68964-4 0  9996,2 54096  53.2162 284.3623 0001088 105.6830 254.4282 15.08855388 19168,6917.833,95.437,540.451,538.946,0.0
54096.0,STARLINK-5188,PAYLOAD,2023-02-22 18:07:16,15.08832327,0.000115,53.2167,281.0932,95.8517,264.2606,3.9966e-05,3.48e-06,0.0,0 STARLINK-5188,1 54096U 22136AX  23053.75504725  .00000348  00000-0  39966-4 0  9998,2 54096  53.2167 281.0932 0001150  95.8517 264.2606 15.08832327 19743,6917.904,95.438,540.564,538.973,0.0
54096.0,STARLINK-5188,PAYLOAD,2023-02-22 21:18:02,15.08833199,0.0001166,53.2164,280.4979,95.8323,264.2802,5.1326e-05,5.29e-06,0.0,0 STARLINK-5188,1 54096U 22136AX  23053.88752835  .00000529  00000-0  51326-4 0  9994,2 54096  53.2164 280.4979 0001166  95.8323 264.2802 15.08833199 19292,6917.901,95.438,540.573,538.96,0.0
54096.0,STARLINK-5188,PAYLOAD,2023-02-23 02:04:11,15.08838855,0.0001059,53.2163,279.6051,95.2266,264.8847,2.2389e-05,6.9e-07,0.0,0 STARLINK-5188,1 54096U 22136AX  23054.08624391  .00000069  00000-0  22389-4 0  9998,2 54096  53.2163 279.6051 0001059  95.2266 264.8847 15.08838855 19326,6917.884,95.438,540.481,539.016,0.0
54096.0,STARLINK-5188,PAYLOAD,2023-02-23 21:08:48,15.08853294,0.0001044,53.2163,276.0364,91.9174,268.1938,0.00010916,1.451e-05,0.0,0 STARLINK-5188,1 54096U 22136AX  23054.88111289  .00001451  00000-0  10916-3 0  9991,2 54096  53.2163 276.0364 0001044  91.9174 268.1938 15.08853294 19444,6917.84,95.437,540.427,538.983,0.0
54096.0,STARLINK-5188,PAYLOAD,2023-02-24 00:19:34,15.08856963,0.0001036,53.2158,275.4413,94.9578,265.1533,0.00014519,2.025e-05,0.0,0 STARLINK-5188,1 54096U 22136AX  23055.01358941  .00002025  00000-0  14519-3 0  9996,2 54096  53.2158 275.4413 0001036  94.9578 265.1533 15.08856963 19936,6917.829,95.436,540.41,538.977,0.0
54096.0,STARLINK-5188,PAYLOAD,2023-02-24 20:59:36,15.08837009,0.0001071,53.2146,271.5755,85.0179,275.0935,0.00010402,1.368e-05,0.0,0 STARLINK-5188,1 54096U 22136AX  23055.87472551  .00001368  00000-0  10402-3 0  9990,2 54096  53.2146 271.5755 0001071  85.0179 275.0935 15.08837009 20068,6917.89,95.438,540.495,539.014,0.0
54096.0,STARLINK-5188,PAYLOAD,2023-02-25 01:45:45,15.08839802,0.0001063,53.2148,270.6835,82.9686,277.1427,0.00012991,1.78e-05,0.0,0 STARLINK-5188,1 54096U 22136AX  23056.07344467  .00001780  00000-0  12991-3 0  9990,2 54096  53.2148 270.6835 0001063  82.9686 277.1427 15.08839802 19621,6917.881,95.438,540.481,539.011,0.0
54096.0,STARLINK-5188,PAYLOAD,2023-02-25 20:50:23,15.08845787,0.0001072,53.2151,267.1148,80.8716,279.2398,8.0722e-05,9.97e-06,0.0,0 STARLINK-5188,1 54096U 22136AX  23056.86832224  .00000997  00000-0  80722-4 0  9997,2 54096  53.2151 267.1148 0001072  80.8716 279.2398 15.08845787 19746,6917.863,95.437,540.469,538.986,0.0
54096.0,STARLINK-5188,PAYLOAD,2023-02-26 01:36:32,15.08849097,0.0001104,53.2155,266.2225,79.1241,280.9876,0.00024556,3.623e-05,0.0,0 STARLINK-5188,1 54096U 22136AX  23057.06704150  .00003623  00000-0  24556-3 0  9997,2 54096  53.2155 266.2225 0001104  79.1241 280.9876 15.08849097 20241,6917.853,95.437,540.481,538.954,0.0
54096.0,STARLINK-5188,PAYLOAD,2023-02-26 14:19:37,15.08844023,0.000112,53.2156,263.8437,79.523,280.5889,0.00019736,2.855e-05,0.0,0 STARLINK-5188,1 54096U 22136AX  23057.59696331  .00002855  00000-0  19736-3 0  9996,2 54096  53.2156 263.8437 0001120  79.5230 280.5889 15.08844023 19859,6917.868,95.437,540.508,538.958,0.0
54096.0,STARLINK-5188,PAYLOAD,2023-02-26 20:41:09,15.08852584,0.000117,53.2161,262.6544,76.7451,283.3672,0.00028125,4.193e-05,0.0,0 STARLINK-5188,1 54096U 22136AX  23057.86191886  .00004193  00000-0  28125-3 0  9990,2 54096  53.2161 262.6544 0001170  76.7451 283.3672 15.08852584 19896,6917.842,95.437,540.516,538.898,0.0
54096.0,STARLINK-5188,PAYLOAD,2023-02-27 06:13:28,15.08846227,1e-05,53.2156,260.8697,153.0993,207.0004,0.00011507,1.545e-05,0.0,0 STARLINK-5188,1 54096U 22136AX  23058.25935630  .00001545  00000-0  11507-3 0  9991,2 54096  53.2156 260.8697 0000100 153.0993 207.0004 15.08846227 20421,6917.861,95.437,539.796,539.657,0.0
